ONEWEB-0102             
1 47258U 20100A   24326.36495968  .00000183  00000+0  47459-3 0  9999
2 47258  87.8864 104.7539 0001383  97.4453 262.6832 13.12442088189599
ONEWEB-0109             
1 47259U 20100B   24326.83049356  .00000266  00000+0  70495-3 0  9996
2 47259  87.8868 104.6274 0001371  96.7920 263.3364 13.12444337189482
ONEWEB-0110             
1 47260U 20100C   24326.39901377  .00000183  00000+0  47347-3 0  9997
2 47260  87.8860 104.7098 0001471  92.7715 267.3581 13.12439911189599
ONEWEB-0111             
1 47261U 20100D   24326.35358412 -.00000135  00000+0 -41056-3 0  9990
2 47261  87.8866 104.7228 0001480  97.4294 262.7003 13.12446686189422
ONEWEB-0114             
1 47262U 20100E   24326.84184680 -.00000733  00000+0 -20730-2 0  9998
2 47262  87.8866 104.6329 0001235  99.5867 260.5401 13.12433131189442
ONEWEB-0117             
1 47263U 20100F   24326.83374073  .00000319  00000+0  85221-3 0  9990
2 47263  87.8863 104.6179 0001604  97.6420 262.4891 13.12440697189457
ONEWEB-0118             
1 47264U 20100G   24326.33251112 -.00000130  00000+0 -39757-3 0  9990
2 47264  87.8861 104.7205 0001435 113.6022 246.5258 13.12442100189581
ONEWEB-0119             
1 47265U 20100H   24326.36009540 -.00000003  00000+0 -43959-4 0  9999
2 47265  87.8863 104.7542 0001546  95.3201 264.8104 13.12442363189568
